start=new Date('2021-08-22T00:00:00.000Z').valueOf();
sats=[{"LAUNCH_DATE":"2021-05-04","COUNTRY_CODE":"US","ARG_OF_PERICENTER":"97.6256","ELEMENT_SET_NO":"999","REV_AT_EPOCH":"1668","GP_ID":"183215789","TLE_LINE2":"2 48361  53.0542 257.8189 0001361  97.6256 262.4887 15.06386738 16684","MEAN_MOTION_DOT":"-0.00000067","SEMIMAJOR_AXIS":"6925.389","APOAPSIS":"548.197","EPHEMERIS_TYPE":"0","CLASSIFICATION_TYPE":"U","RCS_SIZE":"LARGE","OBJECT_ID":"2021-038J","MEAN_MOTION_DDOT":"0.0000000000000","TLE_LINE1":"1 48361U 21038J   21233.77694375 -.00000067  00000-0  14398-4 0  9998","MEAN_MOTION":"15.06386738","OBJECT_NAME":"STARLINK-2591","EPOCH":"2021-08-21T18:38:47.940000","CENTER_NAME":"EARTH","PERIAPSIS":"546.312","PERIOD":"95.593","RA_OF_ASC_NODE":"257.8189","MEAN_ELEMENT_THEORY":"SGP4","DECAY_DATE":null,"FILE":"3101032","REF_FRAME":"TEME","BSTAR":"0.00001439800000","SITE":"AFETR","MEAN_ANOMALY":"262.4887","INCLINATION":"53.0542","TIME_SYSTEM":"UTC","OBJECT_TYPE":"PAYLOAD","ECCENTRICITY":"0.00013610","NORAD_CAT_ID":"48361"},{"REV_AT_EPOCH":"1729","ELEMENT_SET_NO":"999","LAUNCH_DATE":"2021-05-04","COUNTRY_CODE":"US","ARG_OF_PERICENTER":"44.5854","RCS_SIZE":"LARGE","OBJECT_ID":"2021-038K","MEAN_MOTION_DDOT":"0.0000000000000","EPHEMERIS_TYPE":"0","CLASSIFICATION_TYPE":"U","MEAN_MOTION_DOT":"-0.00001451","SEMIMAJOR_AXIS":"6930.366","APOAPSIS":"552.531","GP_ID":"183217841","TLE_LINE2":"2 48362  53.0537 256.8159 0000432  44.5854 315.5168 15.04764331 17295","FILE":"3101130","DECAY_DATE":null,"REF_FRAME":"TEME","PERIAPSIS":"551.932","PERIOD":"95.696","RA_OF_ASC_NODE":"256.8159","MEAN_ELEMENT_THEORY":"SGP4","CENTER_NAME":"EARTH","OBJECT_NAME":"STARLINK-2578","TLE_LINE1":"1 48362U 21038K   21233.79170711 -.00001451  00000-0 -82429-4 0  9993","MEAN_MOTION":"15.04764331","EPOCH":"2021-08-21T19:00:03.494304","NORAD_CAT_ID":"48362","OBJECT_TYPE":"PAYLOAD","ECCENTRICITY":"0.00004320","INCLINATION":"53.0537","TIME_SYSTEM":"UTC","BSTAR":"-0.00008242900000","SITE":"AFETR","MEAN_ANOMALY":"315.5168"},{"OBJECT_TYPE":"PAYLOAD","ECCENTRICITY":"0.00005880","NORAD_CAT_ID":"48363","BSTAR":"0.00003143000000","SITE":"AFETR","MEAN_ANOMALY":"274.9653","INCLINATION":"53.0535","TIME_SYSTEM":"UTC","PERIAPSIS":"546.780","PERIOD":"95.592","RA_OF_ASC_NODE":"252.8349","MEAN_ELEMENT_THEORY":"SGP4","DECAY_DATE":null,"FILE":"3101032","REF_FRAME":"TEME","EPOCH":"2021-08-21T18:04:57.311040","TLE_LINE1":"1 48363U 21038L   21233.75344110  .00000187  00000-0  31430-4 0  9995","MEAN_MOTION":"15.06408568","OBJECT_NAME":"STARLINK-2626","CENTER_NAME":"EARTH","EPHEMERIS_TYPE":"0","CLASSIFICATION_TYPE":"U","RCS_SIZE":"LARGE","OBJECT_ID":"2021-038L","MEAN_MOTION_DDOT":"0.0000000000000","GP_ID":"183215247","TLE_LINE2":"2 48363  53.0535 252.8349 0000588  85.1403 274.9653 15.06408568 16750","MEAN_MOTION_DOT":"0.00000187","SEMIMAJOR_AXIS":"6925.322","APOAPSIS":"547.595","REV_AT_EPOCH":"1675","LAUNCH_DATE":"2021-05-04","COUNTRY_CODE":"US","ARG_OF_PERICENTER":"85.1403","ELEMENT_SET_NO":"999"},{"ELEMENT_SET_NO":"999","ARG_OF_PERICENTER":"63.1445","LAUNCH_DATE":"2021-05-04","COUNTRY_CODE":"US","REV_AT_EPOCH":"1675","APOAPSIS":"547.694","MEAN_MOTION_DOT":"0.00000187","SEMIMAJOR_AXIS":"6925.346","TLE_LINE2":"2 48364  53.0548 252.8542 0000698  63.1445 296.9615 15.06400931 16752","GP_ID":"183215264","OBJECT_ID":"2021-038M","MEAN_MOTION_DDOT":"0.0000000000000","RCS_SIZE":"LARGE","EPHEMERIS_TYPE":"0","CLASSIFICATION_TYPE":"U","CENTER_NAME":"EARTH","TLE_LINE1":"1 48364U 21038M   21233.74880403  .00000187  00000-0  31396-4 0  9996","MEAN_MOTION":"15.06400931","OBJECT_NAME":"STARLINK-2611","EPOCH":"2021-08-21T17:58:16.668192","REF_FRAME":"TEME","DECAY_DATE":null,"FILE":"3101032","RA_OF_ASC_NODE":"252.8542","MEAN_ELEMENT_THEORY":"SGP4","PERIAPSIS":"546.727","PERIOD":"95.592","INCLINATION":"53.0548","TIME_SYSTEM":"UTC","BSTAR":"0.00003139600000","MEAN_ANOMALY":"296.9615","SITE":"AFETR","NORAD_CAT_ID":"48364","ECCENTRICITY":"0.00006980","OBJECT_TYPE":"PAYLOAD"},{"CENTER_NAME":"EARTH","MEAN_MOTION":"15.06394241","TLE_LINE1":"1 48365U 21038N   21233.79398114 -.00001447  00000-0 -78295-4 0  9996","EPOCH":"2021-08-21T19:03:19.970496","OBJECT_NAME":"STARLINK-2608","FILE":"3101032","DECAY_DATE":null,"REF_FRAME":"TEME","PERIOD":"95.593","PERIAPSIS":"546.830","MEAN_ELEMENT_THEORY":"SGP4","RA_OF_ASC_NODE":"252.6522","TIME_SYSTEM":"UTC","INCLINATION":"53.0555","SITE":"AFETR","MEAN_ANOMALY":"300.5450","BSTAR":"-0.00007829500000","NORAD_CAT_ID":"48365","OBJECT_TYPE":"PAYLOAD","ECCENTRICITY":"0.00005800","ELEMENT_SET_NO":"999","COUNTRY_CODE":"US","LAUNCH_DATE":"2021-05-04","ARG_OF_PERICENTER":"59.5596","REV_AT_EPOCH":"1676","SEMIMAJOR_AXIS":"6925.366","MEAN_MOTION_DOT":"-0.00001447","APOAPSIS":"547.633","GP_ID":"183215435","TLE_LINE2":"2 48365  53.0555 252.6522 0000580  59.5596 300.5450 15.06394241 16769","RCS_SIZE":"LARGE","MEAN_MOTION_DDOT":"0.0000000000000","OBJECT_ID":"2021-038N","CLASSIFICATION_TYPE":"U","EPHEMERIS_TYPE":"0"},{"REV_AT_EPOCH":"1682","ELEMENT_SET_NO":"999","ARG_OF_PERICENTER":"47.7653","LAUNCH_DATE":"2021-05-04","COUNTRY_CODE":"US","OBJECT_ID":"2021-038P","MEAN_MOTION_DDOT":"0.0000000000000","RCS_SIZE":"LARGE","EPHEMERIS_TYPE":"0","CLASSIFICATION_TYPE":"U","APOAPSIS":"547.656","MEAN_MOTION_DOT":"0.00000261","SEMIMAJOR_AXIS":"6925.352","TLE_LINE2":"2 48366  53.0541 247.7133 0000634  47.7653 312.3390 15.06398792 16827","GP_ID":"183215349","REF_FRAME":"TEME","FILE":"3101032","DECAY_DATE":null,"RA_OF_ASC_NODE":"247.7133","MEAN_ELEMENT_THEORY":"SGP4","PERIAPSIS":"546.778","PERIOD":"95.592","CENTER_NAME":"EARTH","MEAN_MOTION":"15.06398792","TLE_LINE1":"1 48366U 21038P   21233.78155913  .00000261  00000-0  36394-4 0  9999","OBJECT_NAME":"STARLINK-2631","EPOCH":"2021-08-21T18:45:26.708832","NORAD_CAT_ID":"48366","ECCENTRICITY":"0.00006340","OBJECT_TYPE":"PAYLOAD","INCLINATION":"53.0541","TIME_SYSTEM":"UTC","BSTAR":"0.00003639400000","MEAN_ANOMALY":"312.3390","SITE":"AFETR"},{"ELEMENT_SET_NO":"999","ARG_OF_PERICENTER":"58.9343","LAUNCH_DATE":"2021-05-04","COUNTRY_CODE":"US","REV_AT_EPOCH":"1682","APOAPSIS":"547.783","MEAN_MOTION_DOT":"0.00000691","SEMIMAJOR_AXIS":"6925.326","TLE_LINE2":"2 48367  53.0555 247.7251 0000856  58.9343 301.1730 15.06407468 16825","GP_ID":"183215601","OBJECT_ID":"2021-038Q","MEAN_MOTION_DDOT":"0.0000000000000","RCS_SIZE":"LARGE","EPHEMERIS_TYPE":"0","CLASSIFICATION_TYPE":"U","CENTER_NAME":"EARTH","MEAN_MOTION":"15.06407468","TLE_LINE1":"1 48367U 21038Q   21233.77785146  .00000691  00000-0  65262-4 0  9999","EPOCH":"2021-08-21T18:40:06.366144","OBJECT_NAME":"STARLINK-2643","REF_FRAME":"TEME","DECAY_DATE":null,"FILE":"3101032","RA_OF_ASC_NODE":"247.7251","MEAN_ELEMENT_THEORY":"SGP4","PERIAPSIS":"546.598","PERIOD":"95.592","INCLINATION":"53.0555","TIME_SYSTEM":"UTC","BSTAR":"0.00006526200000","SITE":"AFETR","MEAN_ANOMALY":"301.1730","NORAD_CAT_ID":"48367","ECCENTRICITY":"0.00008560","OBJECT_TYPE":"PAYLOAD"},{"ELEMENT_SET_NO":"999","COUNTRY_CODE":"US","LAUNCH_DATE":"2021-05-04","ARG_OF_PERICENTER":"59.2803","REV_AT_EPOCH":"1679","SEMIMAJOR_AXIS":"6925.370","MEAN_MOTION_DOT":"0.00000308","APOAPSIS":"547.961","GP_ID":"183187564","TLE_LINE2":"2 48368  53.0538 248.8424 0001047  59.2803 300.8289 15.06392862 16791","RCS_SIZE":"LARGE","MEAN_MOTION_DDOT":"0.0000000000000","OBJECT_ID":"2021-038R","CLASSIFICATION_TYPE":"U","EPHEMERIS_TYPE":"0","CENTER_NAME":"EARTH","MEAN_MOTION":"15.06392862","TLE_LINE1":"1 48368U 21038R   21233.52998017  .00000308  00000-0  39565-4 0  9998","OBJECT_NAME":"STARLINK-2623","EPOCH":"2021-08-21T12:43:10.286688","DECAY_DATE":null,"FILE":"3100831","REF_FRAME":"TEME","PERIOD":"95.593","PERIAPSIS":"546.510","MEAN_ELEMENT_THEORY":"SGP4","RA_OF_ASC_NODE":"248.8424","TIME_SYSTEM":"UTC","INCLINATION":"53.0538","MEAN_ANOMALY":"300.8289","SITE":"AFETR","BSTAR":"0.00003956500000","NORAD_CAT_ID":"48368","OBJECT_TYPE":"PAYLOAD","ECCENTRICITY":"0.00010470"},{"ELEMENT_SET_NO":"999","ARG_OF_PERICENTER":"58.2789","LAUNCH_DATE":"2021-05-04","COUNTRY_CODE":"US","REV_AT_EPOCH":"1682","APOAPSIS":"547.920","MEAN_MOTION_DOT":"-0.00001569","SEMIMAJOR_AXIS":"6925.352","TLE_LINE2":"2 48369  53.0493 247.7698 0001015  58.2789 301.8298 15.06399014 16821","GP_ID":"183215790","OBJECT_ID":"2021-038S","MEAN_MOTION_DDOT":"0.0000000000000","RCS_SIZE":"LARGE","EPHEMERIS_TYPE":"0","CLASSIFICATION_TYPE":"U","CENTER_NAME":"EARTH","EPOCH":"2021-08-21T18:34:48.434880","TLE_LINE1":"1 48369U 21038S   21233.77417170 -.00001569  00000-0 -86481-4 0  9993","MEAN_MOTION":"15.06399014","OBJECT_NAME":"STARLINK-2641","REF_FRAME":"TEME","DECAY_DATE":null,"FILE":"3101032","RA_OF_ASC_NODE":"247.7698","MEAN_ELEMENT_THEORY":"SGP4","PERIAPSIS":"546.514","PERIOD":"95.592","INCLINATION":"53.0493","TIME_SYSTEM":"UTC","BSTAR":"-0.00008648100000","MEAN_ANOMALY":"301.8298","SITE":"AFETR","NORAD_CAT_ID":"48369","ECCENTRICITY":"0.00010150","OBJECT_TYPE":"PAYLOAD"},{"NORAD_CAT_ID":"48370","OBJECT_TYPE":"PAYLOAD","ECCENTRICITY":"0.00007740","INCLINATION":"53.0542","TIME_SYSTEM":"UTC","BSTAR":"0.00003634600000","MEAN_ANOMALY":"318.6721","SITE":"AFETR","DECAY_DATE":null,"FILE":"3101032","REF_FRAME":"TEME","PERIAPSIS":"546.707","PERIOD":"95.593","RA_OF_ASC_NODE":"247.7633","MEAN_ELEMENT_THEORY":"SGP4","CENTER_NAME":"EARTH","TLE_LINE1":"1 48370U 21038T   21233.77049915  .00000260  00000-0  36346-4 0  9993","MEAN_MOTION":"15.06390318","EPOCH":"2021-08-21T18:29:31.126560","OBJECT_NAME":"STARLINK-2621","RCS_SIZE":"LARGE","OBJECT_ID":"2021-038T","MEAN_MOTION_DDOT":"0.0000000000000","EPHEMERIS_TYPE":"0","CLASSIFICATION_TYPE":"U","MEAN_MOTION_DOT":"0.00000260","SEMIMAJOR_AXIS":"6925.378","APOAPSIS":"547.779","GP_ID":"183215704","TLE_LINE2":"2 48370  53.0542 247.7633 0000774  41.4327 318.6721 15.06390318 16825","REV_AT_EPOCH":"1682","ELEMENT_SET_NO":"999","LAUNCH_DATE":"2021-05-04","COUNTRY_CODE":"US","ARG_OF_PERICENTER":"41.4327"}];
